{"fetched_at":"2026-03-29T16:36:15Z","count":15609,"tles":[{"name":"STARLINK-35242","line1":"1 65493U 25198B   26087.69368079  .00028811  00000+0  98083-3 0  9993","line2":"2 65493  53.1601 182.4498 0001319  92.9966 267.1185 15.30209232 31535","category":"Starlink"}]}